{
 "type": "FeatureCollection",
 "features": [
  {
   "type": "Feature",
   "properties": {
    "name": "Spencer working zone \u2014 Heights / Shady Acres / Norhill / Woodland Heights / Brooke Smith",
    "bounds": "610 (N), I-45\u2013N Main (E), I-10 (S), White Oak Bayou\u2013TC Jester (W)",
    "created": "2026-07-03",
    "southern_boundary": "COH I-10 midpoint between mainline centerlines; retain north side; 2026-09-10"
   },
   "geometry": {
    "type": "Polygon",
    "coordinates": [
     [
      [
       -95.42,
       29.8165
      ],
      [
       -95.39,
       29.817
      ],
      [
       -95.366,
       29.8165
      ],
      [
       -95.363,
       29.802
      ],
      [
       -95.36,
       29.79
      ],
      [
       -95.356,
       29.776
      ],
      [
       -95.3577582811849,
       29.769846015852846
      ],
      [
       -95.365,
       29.769846015852846
      ],
      [
       -95.365035465406,
       29.76988008095396
      ],
      [
       -95.3650678088794,
       29.76991280828842
      ],
      [
       -95.3650679632302,
       29.7699107304922
      ],
      [
       -95.3652780793625,
       29.77015662533404
      ],
      [
       -95.3653038952126,
       29.77018973360481
      ],
      [
       -95.3654390969351,
       29.77036932048489
      ],
      [
       -95.3656305470527,
       29.77063145744986
      ],
      [
       -95.3656572257304,
       29.770668050473738
      ],
      [
       -95.3657845095329,
       29.77084995490435
      ],
      [
       -95.365981439777,
       29.771131389074903
      ],
      [
       -95.3661468958781,
       29.771402002726642
      ],
      [
       -95.3661950962613,
       29.7714877284507
      ],
      [
       -95.3663018180616,
       29.771674990761106
      ],
      [
       -95.3666680275605,
       29.77234464716401
      ],
      [
       -95.3668053602301,
       29.77259428207397
      ],
      [
       -95.3669199513378,
       29.77282887052187
      ],
      [
       -95.366996120782,
       29.77295847758042
      ],
      [
       -95.3670171150412,
       29.77299405066068
      ],
      [
       -95.3672861179512,
       29.773449852251126
      ],
      [
       -95.3676135743843,
       29.773998207851342
      ],
      [
       -95.3679461150996,
       29.77455353238097
      ],
      [
       -95.3679682728508,
       29.77459053461221
      ],
      [
       -95.3680414083394,
       29.774713650895457
      ],
      [
       -95.3682091035324,
       29.774978645505715
      ],
      [
       -95.3682562080972,
       29.775057718377873
      ],
      [
       -95.3682611785405,
       29.77506633246133
      ],
      [
       -95.3682978074716,
       29.77512914202671
      ],
      [
       -95.3683356619134,
       29.775192732778898
      ],
      [
       -95.3683389282115,
       29.775198113060878
      ],
      [
       -95.3683747295479,
       29.775252519439313
      ],
      [
       -95.3684150007614,
       29.775312479294236
      ],
      [
       -95.3684564632358,
       29.775373011182808
      ],
      [
       -95.368499102028,
       29.775434095961057
      ],
      [
       -95.3685429075243,
       29.775495716238662
      ],
      [
       -95.3685878659935,
       29.775557854911888
      ],
      [
       -95.3685905862695,
       29.77556155124839
      ],
      [
       -95.3686339613605,
       29.7756206961989
      ],
      [
       -95.3686811838108,
       29.775684037222277
      ],
      [
       -95.3687295158565,
       29.77574784332676
      ],
      [
       -95.3687789451384,
       29.77581209725391
      ],
      [
       -95.368829456753,
       29.77587677925426
      ],
      [
       -95.3688810344643,
       29.775941869133614
      ],
      [
       -95.3689111895803,
       29.775979387151235
      ],
      [
       -95.3689336632881,
       29.77600674980366
      ],
      [
       -95.3689873283207,
       29.776071169391358
      ],
      [
       -95.3690420132052,
       29.776135912677585
      ],
      [
       -95.3690977017454,
       29.776200959365262
      ],
      [
       -95.3691543763723,
       29.776266289282667
      ],
      [
       -95.3692120194366,
       29.77633188332782
      ],
      [
       -95.3692543401303,
       29.776379434682354
      ],
      [
       -95.3692706172861,
       29.776396607384154
      ],
      [
       -95.3693301483945,
       29.776458589522672
      ],
      [
       -95.369390597817,
       29.77652071418617
      ],
      [
       -95.3694519452392,
       29.77658296284684
      ],
      [
       -95.3695141743839,
       29.77664531739311
      ],
      [
       -95.3695155092474,
       29.776646638499194
      ],
      [
       -95.3695772663087,
       29.77669739136511
      ],
      [
       -95.3695836226589,
       29.776702538919565
      ],
      [
       -95.3696412007793,
       29.776748219748043
      ],
      [
       -95.3696530291483,
       29.77675746579451
      ],
      [
       -95.3697059601456,
       29.77679799990242
      ],
      [
       -95.3697237100955,
       29.77681139066636
      ],
      [
       -95.3697715240924,
       29.77684673056165
      ],
      [
       -95.3697956415107,
       29.776864287700914
      ],
      [
       -95.3698378737174,
       29.77689440659801
      ],
      [
       -95.3698688047336,
       29.776916130155872
      ],
      [
       -95.3699049886653,
       29.776941025416907
      ],
      [
       -95.3699431745217,
       29.776966892180347
      ],
      [
       -95.3699728487414,
       29.776986581773727
      ],
      [
       -95.3700187308419,
       29.777016549183603
      ],
      [
       -95.370041434842,
       29.777031073051656
      ],
      [
       -95.3700954497438,
       29.777065077060264
      ],
      [
       -95.3701107253997,
       29.777074494351975
      ],
      [
       -95.3701733085691,
       29.77711245191483
      ],
      [
       -95.370180700099,
       29.77711684139495
      ],
      [
       -95.370251337332,
       29.777158098126563
      ],
      [
       -95.3702522833271,
       29.77715864156287
      ],
      [
       -95.370322617995,
       29.777198179711554
      ],
      [
       -95.3703323500669,
       29.77720355873662
      ],
      [
       -95.3703945191474,
       29.777237174863323
      ],
      [
       -95.3704134847975,
       29.777247253920134
      ],
      [
       -95.3704670191813,
       29.777275079080578
      ],
      [
       -95.3704956621951,
       29.777289705315887
      ],
      [
       -95.3705400963679,
       29.777311888655337
      ],
      [
       -95.3705788595604,
       29.777330892475952
      ],
      [
       -95.370613730311,
       29.777347600443953
      ],
      [
       -95.3706630502373,
       29.77737101225531
      ],
      [
       -95.3707482089015,
       29.777410511495813
      ],
      [
       -95.3708343101886,
       29.77744953353439
      ],
      [
       -95.3709213274819,
       29.777488065823075
      ],
      [
       -95.3710014613114,
       29.777522734429528
      ],
      [
       -95.3710092353365,
       29.777525974299596
      ],
      [
       -95.3710980070952,
       29.777562084323478
      ],
      [
       -95.3711876147284,
       29.777597657575605
      ],
      [
       -95.3713907499087,
       29.777677316597398
      ],
      [
       -95.3714060382176,
       29.77768343561521
      ],
      [
       -95.3716756573413,
       29.777800724191337
      ],
      [
       -95.3717604506425,
       29.77783553602108
      ],
      [
       -95.371803171882,
       29.77785159387429
      ],
      [
       -95.3724383995732,
       29.778090358144098
      ],
      [
       -95.3724482162573,
       29.778093910303625
      ],
      [
       -95.3730767187762,
       29.778322257640884
      ],
      [
       -95.3730919766791,
       29.778327763683308
      ],
      [
       -95.3736183654156,
       29.77851626973967
      ],
      [
       -95.3741372606224,
       29.778690192717054
      ],
      [
       -95.3743443235272,
       29.77875217841889
      ],
      [
       -95.3746180064912,
       29.778819657008796
      ],
      [
       -95.3748088703883,
       29.77886820738622
      ],
      [
       -95.3750526497144,
       29.7789201540057
      ],
      [
       -95.3754387769904,
       29.778989727869668
      ],
      [
       -95.3754875635774,
       29.778996586543656
      ],
      [
       -95.3759683306155,
       29.77903997371655
      ],
      [
       -95.3759813689078,
       29.77904082827802
      ],
      [
       -95.3764924842954,
       29.779061379313678
      ],
      [
       -95.3765634157356,
       29.779060673039062
      ],
      [
       -95.377078702558,
       29.77903181455111
      ],
      [
       -95.3772499826347,
       29.779012605166812
      ],
      [
       -95.3775773505704,
       29.77894939568647
      ],
      [
       -95.377692640478,
       29.778922830170362
      ],
      [
       -95.3780691341108,
       29.77883817193458
      ],
      [
       -95.3782724231171,
       29.778784627352692
      ],
      [
       -95.3785599721224,
       29.778706084144837
      ],
      [
       -95.3788900600395,
       29.778602649879264
      ],
      [
       -95.3789589595664,
       29.77857996290659
      ],
      [
       -95.3793404776801,
       29.77843907829768
      ],
      [
       -95.3802989177358,
       29.778068931878167
      ],
      [
       -95.3805612139517,
       29.77797610741996
      ],
      [
       -95.381151187514,
       29.77777649002092
      ],
      [
       -95.3811930588631,
       29.777763528235333
      ],
      [
       -95.382026056856,
       29.777512348401793
      ],
      [
       -95.3821663366663,
       29.777472975334284
      ],
      [
       -95.3825905492436,
       29.7773582918307
      ],
      [
       -95.3826935102733,
       29.777332297665236
      ],
      [
       -95.3830124955183,
       29.777261169073462
      ],
      [
       -95.3832086747243,
       29.77721560440096
      ],
      [
       -95.3832989312042,
       29.777196950426863
      ],
      [
       -95.3837578899822,
       29.777113149929576
      ],
      [
       -95.3839473242846,
       29.77707888134828
      ],
      [
       -95.3842003083002,
       29.777033960163322
      ],
      [
       -95.3843529699393,
       29.77700608654386
      ],
      [
       -95.3847448932138,
       29.776948510220265
      ],
      [
       -95.3848642946937,
       29.77693142968024
      ],
      [
       -95.3852385913269,
       29.77687763115749
      ],
      [
       -95.3854516242194,
       29.77685726038709
      ],
      [
       -95.3856195222467,
       29.77684521587868
      ],
      [
       -95.3858421790989,
       29.77682908472555
      ],
      [
       -95.385917058597,
       29.77682473404714
      ],
      [
       -95.3865308326974,
       29.776795140723102
      ],
      [
       -95.3866425568132,
       29.776790736396205
      ],
      [
       -95.3874096031677,
       29.776760495619783
      ],
      [
       -95.3877444077977,
       29.77675256704921
      ],
      [
       -95.3877923201676,
       29.776751432205636
      ],
      [
       -95.3884730558516,
       29.77673530632358
      ],
      [
       -95.3887060736988,
       29.776731452500172
      ],
      [
       -95.3887559442026,
       29.77673062767323
      ],
      [
       -95.3889077506461,
       29.77672735058184
      ],
      [
       -95.3889230004231,
       29.776727018074105
      ],
      [
       -95.3889757239645,
       29.776726140204097
      ],
      [
       -95.3905327696456,
       29.776700196656783
      ],
      [
       -95.3907082690219,
       29.776696493181532
      ],
      [
       -95.3969873181559,
       29.77656021393562
      ],
      [
       -95.3970865736247,
       29.776558147330306
      ],
      [
       -95.3974401156592,
       29.776552021633314
      ],
      [
       -95.3974425329465,
       29.77655197974369
      ],
      [
       -95.3987069485314,
       29.776530065531674
      ],
      [
       -95.3987174263513,
       29.776529883880002
      ],
      [
       -95.4001403063746,
       29.776505207051372
      ],
      [
       -95.4005655319818,
       29.776497831229086
      ],
      [
       -95.4006494815537,
       29.776499385051814
      ],
      [
       -95.401511491778,
       29.77654062635761
      ],
      [
       -95.4017022441241,
       29.776554472789535
      ],
      [
       -95.4024271676717,
       29.776632869724924
      ],
      [
       -95.4029001668491,
       29.776688296186418
      ],
      [
       -95.4029610999137,
       29.776695999322193
      ],
      [
       -95.4033807126303,
       29.77675441724754
      ],
      [
       -95.4034265398764,
       29.77676102181276
      ],
      [
       -95.4035255963187,
       29.776777176051063
      ],
      [
       -95.4043893084003,
       29.776930587407
      ],
      [
       -95.4050005106192,
       29.777039096039132
      ],
      [
       -95.4056783355435,
       29.777164026463964
      ],
      [
       -95.4062782354555,
       29.77725937346745
      ],
      [
       -95.4062798490478,
       29.77725960691633
      ],
      [
       -95.4066308016703,
       29.77731038092805
      ],
      [
       -95.4072564407356,
       29.777395849429244
      ],
      [
       -95.4074300820615,
       29.77741764666853
      ],
      [
       -95.4078514879234,
       29.777468531803787
      ],
      [
       -95.4079582843917,
       29.777479017318477
      ],
      [
       -95.4083550567895,
       29.77750556663345
      ],
      [
       -95.4084543446865,
       29.77751146416591
      ],
      [
       -95.409064706141,
       29.77753259543462
      ],
      [
       -95.40910279542,
       29.77753343369551
      ],
      [
       -95.4096154604341,
       29.777538728504656
      ],
      [
       -95.409621686653,
       29.7775387967526
      ],
      [
       -95.4105860821638,
       29.77755024295383
      ],
      [
       -95.4107217298886,
       29.777549306318676
      ],
      [
       -95.4115895967479,
       29.777543262815183
      ],
      [
       -95.41586771685881,
       29.77746741470856
      ],
      [
       -95.42,
       29.7905
      ],
      [
       -95.4275,
       29.796
      ],
      [
       -95.433,
       29.806
      ],
      [
       -95.4415,
       29.8155
      ],
      [
       -95.42,
       29.8165
      ]
     ]
    ]
   }
  }
 ]
}
