{"type":"FeatureCollection","features":[{"type":"Feature","properties":{"market":"montrose","source":"montrose.html HD_POLYS"},"geometry":{"type":"Polygon","coordinates":[[[-95.41074,29.74055],[-95.4106,29.7286],[-95.387,29.724],[-95.38683,29.73304],[-95.3823,29.73906],[-95.38163,29.74548],[-95.38176,29.74688],[-95.38394,29.74685],[-95.384,29.75032],[-95.38572,29.75028],[-95.38581,29.76158],[-95.39566,29.76294],[-95.39912,29.76178],[-95.40098,29.76199],[-95.40374,29.76094],[-95.40839,29.76045],[-95.40833,29.75635],[-95.41066,29.7545],[-95.41074,29.74055]]]}}]}