{"type":"FeatureCollection","features":[{"type":"Feature","properties":{"market":"springbranch","source":"springbranch.html HD_POLYS"},"geometry":{"type":"Polygon","coordinates":[[[-95.45066,29.79459],[-95.4518,29.78977],[-95.45201,29.78385],[-95.4528,29.78163],[-95.45387,29.78076],[-95.45784,29.78297],[-95.46033,29.78375],[-95.48646,29.78382],[-95.4865,29.78446],[-95.48505,29.78445],[-95.48504,29.79475],[-95.49539,29.79474],[-95.49539,29.79378],[-95.49724,29.79484],[-95.49759,29.79572],[-95.50179,29.79667],[-95.50559,29.79597],[-95.50608,29.79704],[-95.51013,29.79885],[-95.51013,29.7983],[-95.51193,29.7983],[-95.51193,29.79727],[-95.51279,29.79727],[-95.5128,29.79441],[-95.51383,29.79441],[-95.51383,29.78971],[-95.5167,29.78892],[-95.52031,29.78889],[-95.51998,29.78796],[-95.52017,29.78367],[-95.558,29.78426],[-95.558,29.83203],[-95.50678,29.83276],[-95.50504,29.83353],[-95.49654,29.82748],[-95.50633,29.82743],[-95.50622,29.81602],[-95.50081,29.81614],[-95.49997,29.81898],[-95.49386,29.82557],[-95.48883,29.82197],[-95.47173,29.82229],[-95.45897,29.81047],[-95.45861,29.80041],[-95.45066,29.79459]]]}}]}