{"type":"FeatureCollection","features":[{"type":"Feature","properties":{"market":"timbergrove","source":"timbergrove.html HD_POLYS"},"geometry":{"type":"Polygon","coordinates":[[[-95.45929,29.8152],[-95.44372,29.81526],[-95.44235,29.81156],[-95.44079,29.80938],[-95.44115,29.80903],[-95.43583,29.80617],[-95.43349,29.80402],[-95.42731,29.80297],[-95.42677,29.80239],[-95.42629,29.80099],[-95.42483,29.80012],[-95.42464,29.79856],[-95.42344,29.79688],[-95.42291,29.7951],[-95.41406,29.79513],[-95.41404,29.7923],[-95.41154,29.79234],[-95.4118,29.79087],[-95.41172,29.78562],[-95.4112,29.78313],[-95.43575,29.78376],[-95.43671,29.78434],[-95.43677,29.78507],[-95.43819,29.78627],[-95.4421,29.78834],[-95.45861,29.80041],[-95.45929,29.8152]]]}}]}